NORAD_CAT_ID,OBJECT_NAME,OBJECT_TYPE,EPOCH,MEAN_MOTION,ECCENTRICITY,INCLINATION,RA_OF_ASC_NODE,ARG_OF_PERICENTER,MEAN_ANOMALY,BSTAR,MEAN_MOTION_DOT,MEAN_MOTION_DDOT,TLE_LINE0,TLE_LINE1,TLE_LINE2,SEMIMAJOR_AXIS,PERIOD,APOGEE,PERIGEE,DECAYED
49444.0,STARLINK-3126,PAYLOAD,2022-06-24 01:42:29,15.08843686,0.0002974,53.2169,170.24599999999995,42.1808,317.9413,4.5e-05,4.28e-06,0.0,0 STARLINK-3126,1 49444U 21104AN  22175.07117407  .00000428  00000-0  45000-4 0  9994,2 49444  53.2169 170.2460 0002974  42.1808 317.9413 15.08843686 35485,6917.869000000002,95.437,541.7909999999998,537.677,0.0
49444.0,STARLINK-3126,PAYLOAD,2022-06-24 06:28:39,15.08840182,0.0002968,53.2171,169.354,42.1431,317.9789,-3.5576999999999995e-05,-8.55e-06,0.0,0 STARLINK-3126,1 49444U 21104AN  22175.26989833 -.00000855  00000-0 -35577-4 0  9999,2 49444  53.2171 169.3540 0002968  42.1431 317.9789 15.08840182 34440,6917.88,95.438,541.798,537.692,0.0
49444.0,STARLINK-3126,PAYLOAD,2022-06-24 16:00:57,15.08841254,0.0002993,53.217,167.5691,41.2023,318.9195,-4.1593e-05,-9.51e-06,0.0,0 STARLINK-3126,1 49444U 21104AN  22175.66733669 -.00000951  00000-0 -41593-4 0  9999,2 49444  53.2170 167.5691 0002993  41.2023 318.9195 15.08841254 34501,6917.877,95.437,541.812,537.6709999999998,0.0
49444.0,STARLINK-3126,PAYLOAD,2022-06-25 04:44:02,15.08844183,0.0003044,53.2169,165.1897,42.1673,317.9553,-6.046600000000003e-05,-1.251e-05,0.0,0 STARLINK-3126,1 49444U 21104AN  22176.19725423 -.00001251  00000-0 -60466-4 0  9991,2 49444  53.2169 165.1897 0003044  42.1673 317.9553 15.08844183 35658,6917.868,95.437,541.8380000000002,537.627,0.0
49444.0,STARLINK-3126,PAYLOAD,2022-06-25 06:19:25,15.08845616,0.0003037,53.217,164.893,42.1311,317.9915,-4.2401e-05,-9.64e-06,0.0,0 STARLINK-3126,1 49444U 21104AN  22176.26349248 -.00000964  00000-0 -42401-4 0  9995,2 49444  53.2170 164.8930 0003037  42.1311 317.9915 15.08845616 34591,6917.863,95.437,541.8290000000002,537.627,0.0
49444.0,STARLINK-3126,PAYLOAD,2022-06-25 15:51:44,15.08846158,0.0003076,53.2171,163.1089,43.1632,316.9601,-4.2549e-05,-9.66e-06,0.0,0 STARLINK-3126,1 49444U 21104AN  22176.66093054 -.00000966  00000-0 -42549-4 0  9995,2 49444  53.2171 163.1089 0003076  43.1632 316.9601 15.08846158 34659,6917.861999999999,95.437,541.855,537.599,0.0
49444.0,STARLINK-3126,PAYLOAD,2022-06-26 07:45:35,15.08843756,0.0003073,53.2172,160.1362,45.2204,314.9038,8.7424e-05,1.103e-05,0.0,0 STARLINK-3126,1 49444U 21104AN  22177.32332548  .00001103  00000-0  87424-4 0  9996,2 49444  53.2172 160.1362 0003073  45.2204 314.9038 15.08843756 35829,6917.869000000002,95.437,541.86,537.6080000000002,0.0
49444.0,STARLINK-3126,PAYLOAD,2022-06-26 15:42:30,15.08843505,0.00031,53.2172,158.6494,45.6036,314.521,7.514e-05,9.08e-06,0.0,0 STARLINK-3126,1 49444U 21104AN  22177.65452506  .00000908  00000-0  75140-4 0  9993,2 49444  53.2172 158.6494 0003100  45.6036 314.5210 15.08843505 34802,6917.87,95.437,541.879,537.59,0.0
49444.0,STARLINK-3126,PAYLOAD,2022-06-27 04:25:36,15.08834339,0.0003157,53.2175,156.2712,47.5489,312.577,-3.1056e-05,-7.83e-06,0.0,0 STARLINK-3126,1 49444U 21104AN  22178.18445501 -.00000783  00000-0 -31056-4 0  9990,2 49444  53.2175 156.2712 0003157  47.5489 312.5770 15.08834339 35958,6917.898,95.438,541.947,537.5790000000002,0.0
49444.0,STARLINK-3126,PAYLOAD,2022-06-27 06:01:00,15.08835065,0.0003162,53.2175,155.9738,47.6254,312.5006,-2.521e-05,-6.900000000000003e-06,0.0,0 STARLINK-3126,1 49444U 21104AN  22178.25069449 -.00000690  00000-0 -25210-4 0  9993,2 49444  53.2175 155.9738 0003162  47.6254 312.5006 15.08835065 34890,6917.895,95.438,541.948,537.573,0.0
49444.0,STARLINK-3126,PAYLOAD,2022-06-27 15:33:18,15.0883892,0.000319,53.2176,154.1897,48.267,311.8594,-4.0374000000000005e-06,-3.53e-06,0.0,0 STARLINK-3126,1 49444U 21104AN  22178.64813152 -.00000353  00000-0 -40374-5 0  9999,2 49444  53.2176 154.1897 0003190  48.2670 311.8594 15.08838920 34952,6917.884,95.438,541.955,537.5419999999998,0.0
49444.0,STARLINK-3126,PAYLOAD,2022-06-28 04:16:23,15.08843891,0.0003194,53.2177,151.811,49.6459,310.4811,1.5560000000000004e-07,-2.86e-06,0.0,0 STARLINK-3126,1 49444U 21104AN  22179.17804731 -.00000286  00000-0  15560-6 0  9995,2 49444  53.2177 151.8110 0003194  49.6459 310.4811 15.08843891 36108,6917.868,95.437,541.943,537.524,0.0
49444.0,STARLINK-3126,PAYLOAD,2022-06-28 07:27:09,15.08843091,0.0003186,53.2177,151.2163,49.7926,310.3344,-8.9473e-06,-4.31e-06,0.0,0 STARLINK-3126,1 49444U 21104AN  22179.31052777 -.00000431  00000-0 -89473-5 0  9992,2 49444  53.2177 151.2163 0003186  49.7926 310.3344 15.08843091 35056,6917.871,95.437,541.94,537.5319999999998,0.0
49444.0,STARLINK-3126,PAYLOAD,2022-06-28 15:24:05,15.08841932,0.0003191999999999,53.2176,149.7289,49.5061,310.6209,-3.7705e-05,-8.89e-06,0.0,0 STARLINK-3126,1 49444U 21104AN  22179.64172868 -.00000889  00000-0 -37705-4 0  9999,2 49444  53.2176 149.7289 0003192  49.5061 310.6209 15.08841932 35102,6917.874,95.437,541.948,537.531,0.0
49444.0,STARLINK-3126,PAYLOAD,2022-06-29 04:07:11,15.08828516,0.0003147,53.2176,147.3498,50.3107,309.8163,-2.343e-05,-6.62e-06,0.0,0 STARLINK-3126,1 49444U 21104AN  22180.17165770 -.00000662  00000-0 -23430-4 0  9992,2 49444  53.2176 147.3498 0003147  50.3107 309.8163 15.08828516 36258,6917.915,95.438,541.9580000000002,537.6030000000002,0.0
49444.0,STARLINK-3126,PAYLOAD,2022-06-29 07:17:57,15.08827473,0.0003159,53.2176,146.7552,50.3809,309.7462,-3.1885e-05,-7.96e-06,0.0,0 STARLINK-3126,1 49444U 21104AN  22180.30413951 -.00000796  00000-0 -31885-4 0  9995,2 49444  53.2176 146.7552 0003159  50.3809 309.7462 15.08827473 35200,6917.919,95.438,541.969,537.5980000000002,0.0
49444.0,STARLINK-3126,PAYLOAD,2022-06-29 15:14:53,15.08829323,0.0003191,53.2179,145.2687,50.9748,309.1528,-3.6219e-05,-8.65e-06,0.0,0 STARLINK-3126,1 49444U 21104AN  22180.63534053 -.00000865  00000-0 -36219-4 0  9991,2 49444  53.2179 145.2687 0003191  50.9748 309.1528 15.08829323 35258,6917.913000000001,95.438,541.986,537.571,0.0
49444.0,STARLINK-3126,PAYLOAD,2022-06-30 03:57:58,15.08834118,0.0003188,53.2178,142.8895,51.3558,308.7719,-3.5062e-05,-8.47e-06,0.0,0 STARLINK-3126,1 49444U 21104AN  22181.16525936 -.00000847  00000-0 -35062-4 0  9995,2 49444  53.2178 142.8895 0003188  51.3558 308.7719 15.08834118 35335,6917.898,95.438,541.969,537.558,0.0
49444.0,STARLINK-3126,PAYLOAD,2022-06-30 19:51:49,15.08834933,0.0003139,53.2177,139.9162,51.6535,308.4738,-7.5403e-06,-4.09e-06,0.0,0 STARLINK-3126,1 49444U 21104AN  22181.82765972 -.00000409  00000-0 -75403-5 0  9992,2 49444  53.2177 139.9162 0003139  51.6535 308.4738 15.08834933 35436,6917.896,95.438,541.932,537.589,0.0
49444.0,STARLINK-3126,PAYLOAD,2022-07-01 03:48:45,15.0883375,0.0003242,53.2176,138.43,50.5933,309.5346,7.385100000000001e-05,8.87e-06,0.0,0 STARLINK-3126,1 49444U 21104AN  22182.15885918  .00000887  00000-0  73851-4 0  9994,2 49444  53.2176 138.4300 0003242  50.5933 309.5346 15.08833750 35486,6917.899,95.438,542.007,537.5219999999998,0.0
49444.0,STARLINK-3126,PAYLOAD,2022-07-01 19:42:36,15.08836949,0.0003261,53.2176,135.4564,51.6455,308.483,8.084100000000001e-05,9.98e-06,0.0,0 STARLINK-3126,1 49444U 21104AN  22182.82125855  .00000998  00000-0  80841-4 0  9995,2 49444  53.2176 135.4564 0003261  51.6455 308.4830 15.08836949 36656,6917.89,95.438,542.011,537.499,0.0
49444.0,STARLINK-3126,PAYLOAD,2022-07-01 21:17:59,15.08839174,0.000322,53.2177,135.1591,53.3565,306.7723,6.1688e-05,6.93e-06,0.0,0 STARLINK-3126,1 49444U 21104AN  22182.88749783  .00000693  00000-0  61688-4 0  9993,2 49444  53.2177 135.1591 0003220  53.3565 306.7723 15.08839174 35597,6917.8830000000025,95.438,541.975,537.52,0.0
49444.0,STARLINK-3126,PAYLOAD,2022-07-02 06:50:18,15.08842191,0.0003273999999999,53.2178,133.375,54.1899,305.9397,8.3886e-05,1.047e-05,0.0,0 STARLINK-3126,1 49444U 21104AN  22183.28493491  .00001047  00000-0  83886-4 0  9998,2 49444  53.2178 133.3750 0003274  54.1899 305.9397 15.08842191 35651,6917.874,95.437,542.004,537.474,0.0
49444.0,STARLINK-3126,PAYLOAD,2022-07-02 19:33:24,15.08834205,0.0003312,53.2178,130.9972,56.0084,304.1222,-3.1988e-05,-7.98e-06,0.0,0 STARLINK-3126,1 49444U 21104AN  22183.81486544 -.00000798  00000-0 -31988-4 0  9998,2 49444  53.2178 130.9972 0003312  56.0084 304.1222 15.08834205 36803,6917.898,95.438,542.054,537.472,0.0
49444.0,STARLINK-3126,PAYLOAD,2022-07-03 13:02:38,15.08843979,0.0003337,53.218,127.7264,57.438,302.6934,3.1077e-05,2.06e-06,0.0,0 STARLINK-3126,1 49444U 21104AN  22184.54349717  .00000206  00000-0  31077-4 0  9990,2 49444  53.2180 127.7264 0003337  57.4380 302.6934 15.08843979 36918,6917.868,95.437,542.0419999999998,537.425,0.0
49444.0,STARLINK-3126,PAYLOAD,2022-07-04 03:21:07,15.08831971,0.0003281,53.2175,125.0497,55.9764,304.154,-0.00010341,-1.934e-05,0.0,0 STARLINK-3126,1 49444U 21104AN  22185.13966719 -.00001934  00000-0 -10341-3 0  9994,2 49444  53.2175 125.0497 0003281  55.9764 304.1540 15.08831971 37008,6917.905,95.438,542.04,537.5,0.0
49444.0,STARLINK-3126,PAYLOAD,2022-07-04 20:50:22,15.08824563,0.0003183,53.2174,121.7775,56.8187,303.311,-9.7914e-05,-1.846e-05,0.0,0 STARLINK-3126,1 49444U 21104AN  22185.86831849 -.00001846  00000-0 -97914-4 0  9993,2 49444  53.2174 121.7775 0003183  56.8187 303.3110 15.08824563 36045,6917.928000000001,95.439,541.995,537.591,0.0
49444.0,STARLINK-3126,PAYLOAD,2022-07-05 03:11:55,15.08827619,0.0003141,53.2178,120.588,56.9377,303.1917,-7.6165e-05,-1.5e-05,0.0,0 STARLINK-3126,1 49444U 21104AN  22186.13327810 -.00001500  00000-0 -76165-4 0  9994,2 49444  53.2178 120.5880 0003141  56.9377 303.1917 15.08827619 37150,6917.918000000002,95.438,541.956,537.61,0.0
49444.0,STARLINK-3126,PAYLOAD,2022-07-05 20:41:09,15.08834336,0.0003128,53.2178,117.3171,57.6879,302.4415,-5.5237e-05,-1.168e-05,0.0,0 STARLINK-3126,1 49444U 21104AN  22186.86191768 -.00001168  00000-0 -55237-4 0  9992,2 49444  53.2178 117.3171 0003128  57.6879 302.4415 15.08834336 37268,6917.898,95.438,541.927,537.599,0.0
